SUPERVIEW-1 01          
1 41907U 16083A   21159.89473738  .00000903  00000-0  51154-4 0  9998
2 41907  97.5021 246.4589 0016647  82.0409  29.5819 15.15446836245741
SUPERVIEW-1 02          
1 41908U 16083B   21159.86903748  .00000938  00000-0  52973-4 0  9993
2 41908  97.4116 232.9679 0015629  78.3064  32.9900 15.15418720245740
XINGYUN SHIYAN-1        
1 41913U 17002A   21159.80112030  .00000909  00000-0  55207-4 0  9992
2 41913  97.3495 216.2223 0013787 117.4633  18.5530 15.12825452243372
JILIN-1-03              
1 41914U 17002B   21159.81523421  .00000787  00000-0  51662-4 0  9999
2 41914  97.3422 212.3461 0013483 130.3807 289.4440 15.10302243243166
KAIDUN 1                
1 41915U 17002C   21159.81471977  .00000835  00000-0  51957-4 0  9999
2 41915  97.3472 216.4548 0011435 127.8700 323.7435 15.12166928243404
IRIDIUM 106             
1 41917U 17003A   21159.46252655  .00000077  00000-0  20258-4 0  9991
2 41917  86.3961 135.2610 0002274  96.3995 263.7459 14.34217686230239
IRIDIUM 103             
1 41918U 17003B   21159.44984597  .00000082  00000-0  22102-4 0  9993
2 41918  86.3961 135.1722 0001944  83.5674 276.5743 14.34217611230267
IRIDIUM 109             
1 41919U 17003C   21159.45617853  .00000079  00000-0  21154-4 0  9995
2 41919  86.3962 135.1985 0002148  87.1568 272.9873 14.34220005230220
IRIDIUM 102             
1 41920U 17003D   21159.42446958  .00000079  00000-0  21145-4 0  9990
2 41920  86.3960 135.1747 0002331  81.0448 279.1012 14.34219676230305
IRIDIUM 105             
1 41921U 17003E   21159.39520031  .00000075  00000-0  19681-4 0  9990
2 41921  86.3967 103.5843 0002085  98.5288 261.6145 14.34213830232154
IRIDIUM 104             
1 41922U 17003F   21159.43714294  .00000081  00000-0  21931-4 0  9990
2 41922  86.3962 135.1842 0002159  94.5875 265.5567 14.34215385230291
IRIDIUM 114             
1 41923U 17003G   21159.44348551  .00000083  00000-0  22729-4 0  9999
2 41923  86.3961 135.1703 0002574  89.4085 270.7405 14.34220405230292
IRIDIUM 108             
1 41924U 17003H   21159.82063301  .00000072  00000-0  18535-4 0  9997
2 41924  86.3962 103.4042 0002336  93.2112 266.9351 14.34217010232206
IRIDIUM 112             
1 41925U 17003J   21159.43080199  .00000079  00000-0  21248-4 0  9991
2 41925  86.3958 135.1042 0002638  83.7709 276.3787 14.34219764230298
IRIDIUM 111             
1 41926U 17003K   21159.41812469  .00000076  00000-0  19941-4 0  9997
2 41926  86.3960 135.1402 0001976  85.9345 274.2077 14.34219277230272
CARTOSAT-2D             
1 41948U 17008A   21159.45267334  .00000571  00000-0  30296-4 0  9991
2 41948  97.4425 219.8977 0007227 180.2579 179.8654 15.19248050239012
INS-1A                  
1 41949U 17008B   21159.48258180  .00002229  00000-0  88893-4 0  9992
2 41949  97.3087 222.7607 0010587 117.9980 242.2331 15.26177189239698
FLOCK 3P-8              
1 41951U 17008D   21159.43726286  .00001577  00000-0  61078-4 0  9998
2 41951  97.3219 227.2087 0009613 111.8290 248.3972 15.27608344239900
INS-1B                  
1 41954U 17008G   21159.41995686  .00001955  00000-0  78292-4 0  9997
2 41954  97.3080 222.7244 0010388 119.2143 241.0136 15.26179262239637
FLOCK 3P-24             
1 41956U 17008J   21159.42011945  .00001660  00000-0  60576-4 0  9996
2 41956  97.3235 229.9433 0009463  99.0283 261.2029 15.29507807240092
