CREATION_DATE,OBJECT_NAME,OBJECT_ID,EPOCH,MEAN_MOTION,ECCENTRICITY,INCLINATION,RA_OF_ASC_NODE,ARG_OF_PERICENTER,MEAN_ANOMALY,EPHEMERIS_TYPE,CLASSIFICATION_TYPE,NORAD_CAT_ID,ELEMENT_SET_NO,REV_AT_EPOCH,BSTAR,MEAN_MOTION_DOT,MEAN_MOTION_DDOT,SEMIMAJOR_AXIS,PERIOD,APOAPSIS,PERIAPSIS,OBJECT_TYPE,RCS_SIZE,COUNTRY_CODE,LAUNCH_DATE
2021-06-08T22:26:11,SUPERVIEW-1 01,2016-083A,2021-06-08T21:28:25.309632,15.15446836,0.0016647,97.5021,246.4589,82.0409,29.5819,0,U,41907,999,24574,0.000051154,0.00000903,0,6897.759,95.021,531.107,508.142,PAYLOAD,LARGE,PRC,12/28/2016
2021-06-08T22:26:11,SUPERVIEW-1 02,2016-083B,2021-06-08T20:51:24.838272,15.1541872,0.0015629,97.4116,232.9679,78.3064,32.99,0,U,41908,999,24574,0.000052973,0.00000938,0,6897.845,95.023,530.49,508.929,PAYLOAD,LARGE,PRC,12/28/2016
2021-06-08T22:26:11,XY S 1,2017-002A,2021-06-08T19:13:36.793920,15.12825452,0.0013787,97.3495,216.2223,117.4633,18.553,0,U,41913,999,24337,0.000055207,0.00000909,0,6905.725,95.186,537.111,518.069,PAYLOAD,MEDIUM,PRC,1/9/2017
2021-06-08T22:56:10,JILIN-1-03,2017-002B,2021-06-08T19:33:56.235744,15.10302243,0.0013483,97.3422,212.3461,130.3807,289.444,0,U,41914,999,24316,0.000051662,0.00000787,0,6913.415,95.345,544.601,525.958,PAYLOAD,MEDIUM,PRC,1/9/2017
2021-06-08T22:56:10,KAIDUN 1,2017-002C,2021-06-08T19:33:11.788128,15.12166928,0.0011435,97.3472,216.4548,127.87,323.7435,0,U,41915,999,24340,0.000051957,0.00000835,0,6907.73,95.228,537.494,521.696,PAYLOAD,SMALL,PRC,1/9/2017
2021-06-08T18:36:59,IRIDIUM 106,2017-003A,2021-06-08T11:06:02.293920,14.34217686,0.0002274,86.3961,135.261,96.3995,263.7459,0,U,41917,999,23023,0.000020258,0.00000077,0,7155.804,100.403,779.297,776.042,PAYLOAD,LARGE,US,1/14/2017
2021-06-08T18:36:59,IRIDIUM 103,2017-003B,2021-06-08T10:47:46.691808,14.34217611,0.0001944,86.3961,135.1722,83.5674,276.5743,0,U,41918,999,23026,0.000022102,0.00000082,0,7155.805,100.403,779.061,776.279,PAYLOAD,LARGE,US,1/14/2017
2021-06-08T18:36:59,IRIDIUM 109,2017-003C,2021-06-08T10:56:53.824992,14.34220005,0.0002148,86.3962,135.1985,87.1568,272.9873,0,U,41919,999,23022,0.000021154,0.00000079,0,7155.797,100.403,779.199,776.125,PAYLOAD,LARGE,US,1/14/2017
2021-06-08T18:36:59,IRIDIUM 102,2017-003D,2021-06-08T10:11:14.171712,14.34219676,0.0002331,86.396,135.1747,81.0448,279.1012,0,U,41920,999,23030,0.000021145,0.00000079,0,7155.798,100.403,779.331,775.995,PAYLOAD,LARGE,US,1/14/2017
2021-06-08T18:36:59,IRIDIUM 105,2017-003E,2021-06-08T09:29:05.306784,14.3421383,0.0002085,86.3967,103.5843,98.5288,261.6145,0,U,41921,999,23215,0.000019681,0.00000075,0,7155.817,100.403,779.174,776.19,PAYLOAD,LARGE,US,1/14/2017
2021-06-08T18:36:59,IRIDIUM 104,2017-003F,2021-06-08T10:29:29.150016,14.34215385,0.0002159,86.3962,135.1842,94.5875,265.5567,0,U,41922,999,23029,0.000021931,0.00000081,0,7155.812,100.403,779.222,776.132,PAYLOAD,LARGE,US,1/14/2017
2021-06-08T18:36:59,IRIDIUM 114,2017-003G,2021-06-08T10:38:37.148064,14.34220405,0.0002574,86.3961,135.1703,89.4085,270.7405,0,U,41923,999,23029,0.000022729,0.00000083,0,7155.795,100.403,779.502,775.818,PAYLOAD,LARGE,US,1/14/2017
2021-06-08T22:16:10,IRIDIUM 108,2017-003H,2021-06-08T19:41:42.692064,14.3421701,0.0002336,86.3962,103.4042,93.2112,266.9351,0,U,41924,999,23220,0.000018535,0.00000072,0,7155.807,100.403,779.343,776,PAYLOAD,LARGE,US,1/14/2017
2021-06-08T18:36:59,IRIDIUM 112,2017-003J,2021-06-08T10:20:21.291936,14.34219764,0.0002638,86.3958,135.1042,83.7709,276.3787,0,U,41925,999,23029,0.000021248,0.00000079,0,7155.797,100.403,779.55,775.775,PAYLOAD,LARGE,US,1/14/2017
2021-06-08T18:36:59,IRIDIUM 111,2017-003K,2021-06-08T10:02:05.973216,14.34219277,0.0001976,86.396,135.1402,85.9345,274.2077,0,U,41926,999,23027,0.000019941,0.00000076,0,7155.799,100.403,779.078,776.25,PAYLOAD,LARGE,US,1/14/2017
2021-06-08T18:36:59,CARTOSAT 2D,2017-008A,2021-06-08T10:51:50.976576,15.1924805,0.0007227,97.4425,219.8977,180.2579,179.8654,0,U,41948,999,23901,0.000030296,0.00000571,0,6886.249,94.784,513.091,503.137,PAYLOAD,LARGE,IND,2/15/2017
2021-06-08T18:36:59,INS-1A,2017-008B,2021-06-08T11:34:55.067520,15.26177189,0.0010587,97.3087,222.7607,117.998,242.2331,0,U,41949,999,23969,0.000088893,0.00002229,0,6865.39,94.353,494.523,479.986,PAYLOAD,MEDIUM,IND,2/15/2017
2021-06-08T18:36:59,FLOCK 3P 8,2017-008D,2021-06-08T10:29:39.511104,15.27608344,0.0009613,97.3219,227.2087,111.829,248.3972,0,U,41951,999,23990,0.000061078,0.00001577,0,6861.101,94.265,489.562,476.371,PAYLOAD,SMALL,US,2/15/2017
2021-06-08T18:36:59,INS-1B,2017-008G,2021-06-08T10:04:44.272704,15.26179262,0.0010388,97.308,222.7244,119.2143,241.0136,0,U,41954,999,23963,0.000078292,0.00001955,0,6865.384,94.353,494.38,480.117,PAYLOAD,MEDIUM,IND,2/15/2017
2021-06-08T18:36:59,FLOCK 3P 24,2017-008J,2021-06-08T10:04:58.320480,15.29507807,0.0009463,97.3235,229.9433,99.0283,261.2029,0,U,41956,999,24009,0.000060576,0.0000166,0,6855.42,94.148,483.772,470.797,PAYLOAD,SMALL,US,2/15/2017
